,charity_name,city,state,zipcodes
0,1000 Friends Of Colorado Inc,Boulder,CO,80304
1,17solutions,Boulder,CO,80304
2,350 Colorado,Boulder,CO,80304
3,3l Foundation,Boulder,CO,80304
4,Above The Seas Llc,Boulder,CO,80304
5,Academy For International School Heads,Boulder,CO,80304
6,Addictive Bahavior Counseling Ministries International Inc,Boulder,CO,80304
7,Aedra,Boulder,CO,80304
8,Aerial Futures,Boulder,CO,80304
9,Alandi Ashram,Boulder,CO,80304
10,Alex Maldonado Scholarship Fund,Boulder,CO,80304
11,Alliance For Climate Education Inc,Boulder,CO,80304
12,Altai Institute For Research And Conservation Inc,Boulder,CO,80304
13,Alumnae Association Of Mount Holyoke College Inc,Boulder,CO,80304
14,American Federation Of Teachers,Boulder,CO,80304
15,American Group Psychotherapy Association Inc,Boulder,CO,80304
16,Anam Chara,Boulder,CO,80304
17,Apple Ridge Park Homeowners Association,Boulder,CO,80304
18,Art,Boulder,CO,80304
19,Art Parts Creative Reuse Center,Boulder,CO,80304
20,Association Of Colorado Independent Schools,Boulder,CO,80304
21,Athletes Coalition,Boulder,CO,80304
22,Baobao Foundation,Boulder,CO,80304
23,Betty Byfield Paul Foundation,Boulder,CO,80304
24,Blue Moon Dance Company,Boulder,CO,80304
25,Bolderlife Foundation,Boulder,CO,80304
26,Boulder Aikikai Inc,Boulder,CO,80304
27,Boulder Art Matrix,Boulder,CO,80304
28,Boulder Bear Coalition,Boulder,CO,80304
29,Boulder Bible Chapel,Boulder,CO,80304
30,Boulder Carshare,Boulder,CO,80304
31,Boulder County Latina League Inc,Boulder,CO,80304
32,Boulder Cycling Club,Boulder,CO,80304
33,Boulder High Lacrosse,Boulder,CO,80304
34,Boulder Housing Partners Foundation,Boulder,CO,80304
35,Boulder Metalsmithing Association,Boulder,CO,80304
36,Boulder Nablus Sister City Project Inc,Boulder,CO,80304
37,Boulder Opera,Boulder,CO,80304
38,Boulder Samba School,Boulder,CO,80304
39,Boulder Shelter For The Homeless Inc,Boulder,CO,80304
40,Boulder Tibet Sister City Project Inc,Boulder,CO,80304
41,Boulder Valley Cycling Alliance,Boulder,CO,80304
42,Buddhist Arts And Film Festival,Boulder,CO,80304
43,Cancer Quilt Project,Boulder,CO,80304
44,Casa De Dios Shalom,Boulder,CO,80304
45,Cdr Associates,Boulder,CO,80304
46,Centennial Middle School Parentteacher Organization,Boulder,CO,80304
47,Center Of Light And Truth-new Thought Science,Boulder,CO,80304
48,Central Christian Church Of Boulder Colorado,Boulder,CO,80304
49,Child And Family Advocacy Program,Boulder,CO,80304
50,Childrens House Preschool Inc,Boulder,CO,80304
51,Cini Usa Inc,Boulder,CO,80304
52,Citizens For Engaged Communities Inc,Boulder,CO,80304
53,Climbing Wall Association Inc,Boulder,CO,80304
54,Climbing Without Borders,Boulder,CO,80304
55,Coalition For Collaborative Development,Boulder,CO,80304
56,Coalition For Good Governance,Boulder,CO,80304
57,Code Wagon,Boulder,CO,80304
58,Colorado Asia Council,Boulder,CO,80304
59,Colorado Association For Play Therapy,Boulder,CO,80304
60,Colorado Bowhunters Association Inc,Boulder,CO,80304
61,Colorado Film Society,Boulder,CO,80304
62,Colorado High School Cycling League,Boulder,CO,80304
63,Colorado Mosaic Artists,Boulder,CO,80304
64,Colorado Straw Bale Association,Boulder,CO,80304
65,Colorado Textile Group,Boulder,CO,80304
66,Concept Restaurants Inc Employee Health Plan,Boulder,CO,80304
67,Congregation Nevei Kodesh,Boulder,CO,80304
68,Cyclists 4 Community,Boulder,CO,80304
69,Daniels Family Foundation,Boulder,CO,80304
70,Deaf Education Industries,Boulder,CO,80304
71,Democracy And Media Education Foundation,Boulder,CO,80304
72,Earth Guardians Inc,Boulder,CO,80304
73,Edm Cares Project,Boulder,CO,80304
74,Emergency Family Assistance Association Inc,Boulder,CO,80304
75,Energyschool Foundation,Boulder,CO,80304
76,Eon Zen Center Inc,Boulder,CO,80304
77,Equussential Education,Boulder,CO,80304
78,Evan Spear Foundation,Boulder,CO,80304
79,Everyday Good Eating,Boulder,CO,80304
80,F R O G Pose,Boulder,CO,80304
81,Fantasyland Institute Of Learning Inc,Boulder,CO,80304
82,Feed The Soul Inc,Boulder,CO,80304
83,First Orthodox Presbyterian Church,Boulder,CO,80304
84,Flatirons Chamber Music Festival,Boulder,CO,80304
85,Foothill Elementory Pto,Boulder,CO,80304
86,Foundation For African Resources,Boulder,CO,80304
87,Foundation For Earth Science Information Partners,Boulder,CO,80304
88,Free To Live Fellowship Inc,Boulder,CO,80304
89,Friends Of The Peace Parks Inc,Boulder,CO,80304
90,Front Range Agility Club,Boulder,CO,80304
91,Fugere Family Foundation,Boulder,CO,80304
92,Futurity Foundation,Boulder,CO,80304
93,Gateway Apprenticeship Program,Boulder,CO,80304
94,General Association Of Davidian Seventh Day Adventists Inc,Boulder,CO,80304
95,Gentle Passages Foundation Inc,Boulder,CO,80304
96,Go Flyers Club,Boulder,CO,80304
97,Goose Creek Community Land Trust,Boulder,CO,80304
98,Great Escape Inc,Boulder,CO,80304
99,Green Deck Inc,Boulder,CO,80304
100,Growing Gardens Of Boulder County Inc,Boulder,CO,80304
101,Gzsobols Parkinsons Network,Boulder,CO,80304
102,Hands For Life,Boulder,CO,80304
103,Herb Research Foundation,Boulder,CO,80304
104,Hillside Church Of The Savior,Boulder,CO,80304
105,Holy Cross Wilderness Defense Fund,Boulder,CO,80304
106,Honnold Foundation,Boulder,CO,80304
107,Ida P Rolf Research Foundation,Boulder,CO,80304
108,Immigrant Legal Center Of Boulder County,Boulder,CO,80304
109,Incite Productions Inc,Boulder,CO,80304
110,Informed Family Life,Boulder,CO,80304
111,Innovative Users Group,Boulder,CO,80304
112,Insight Sangha,Boulder,CO,80304
113,Institute For Bolder Healthcare,Boulder,CO,80304
114,Institute For International Connect Ion,Boulder,CO,80304
115,Irish Step Dancers Of Colorado,Boulder,CO,80304
116,Jack And Sue Witkin Charitable Foundation,Boulder,CO,80304
117,Jarrow School Inc,Boulder,CO,80304
118,Jinpa Foundation,Boulder,CO,80304
119,Jlf Colorado,Boulder,CO,80304
120,Kapoks,Boulder,CO,80304
121,Kids Included Of Colorado,Boulder,CO,80304
122,Kiva Center,Boulder,CO,80304
123,Kiwanis International Inc,Boulder,CO,80304
124,Land Use Resource Center,Boulder,CO,80304
125,Leave No Trace Center For Outdoor Ethics,Boulder,CO,80304
126,Left Hand Foundation,Boulder,CO,80304
127,Lemon Sponge Cake Contemporary Ballet,Boulder,CO,80304
128,Lhadrima Foundation Inc,Boulder,CO,80304
129,Living Systems Academy,Boulder,CO,80304
130,Luca Media Collective,Boulder,CO,80304
131,Mackenzie Winslows Storytellers Initiative,Boulder,CO,80304
132,Macon & Regina Cowles Foundation,Boulder,CO,80304
133,Making Our Voices Effective Inc,Boulder,CO,80304
134,Mapleton Home Association,Boulder,CO,80304
135,Media In The Public Interest Inc,Boulder,CO,80304
136,Mero Sathi Nepal,Boulder,CO,80304
137,Millenia Music Inc,Boulder,CO,80304
138,Miracle Fund Inc,Boulder,CO,80304
139,Motus Theater,Boulder,CO,80304
140,Mount Zion Lutheran Church & School,Boulder,CO,80304
141,Mountain Flower Urban Goat Dairy,Boulder,CO,80304
142,Namaste Solar Foundation Inc,Boulder,CO,80304
143,Namdrol Ling,Boulder,CO,80304
144,Nami Boulder County Inc,Boulder,CO,80304
145,Natural Transitions Funeral Guidance,Boulder,CO,80304
146,New Horizons School,Boulder,CO,80304
147,Nobo Art District,Boulder,CO,80304
148,Northern Star Charities,Boulder,CO,80304
149,One Act A Day,Boulder,CO,80304
151,Osho Zeenat Foundation,Boulder,CO,80304
152,Passageways Institute Inc,Boulder,CO,80304
153,Path Of The Heart,Boulder,CO,80304
154,Peace Lutheran Church,Boulder,CO,80304
155,People S Climate Of Colorado Incorporated,Boulder,CO,80304
156,Philanthropy Project,Boulder,CO,80304
157,Pine Brook Hills Community Fund,Boulder,CO,80304
158,Pine Brook Hills Homeowners Association Inc,Boulder,CO,80304
159,Piste Foundation,Boulder,CO,80304
160,Pp3cloud,Boulder,CO,80304
161,Protect Our Winters,Boulder,CO,80304
164,Qalandar School,Boulder,CO,80304
165,Reachout Crestview,Boulder,CO,80304
166,Reclaimtheamericandreamorg,Boulder,CO,80304
167,Recovery Trust,Boulder,CO,80304
168,Richard And Joan Ringoen Family Foundation Inc,Boulder,CO,80304
169,Ridgeview Fund,Boulder,CO,80304
170,Right Use Of Power Institute,Boulder,CO,80304
171,Rocky Mountain Chorale,Boulder,CO,80304
172,Rocky Mountain Church Of Christ Of Boulder,Boulder,CO,80304
173,Rocky Mountain Climbers Club Of Colorado,Boulder,CO,80304
174,Rocky Mountain Peace And Justice Center,Boulder,CO,80304
175,Rocky Ridge Music Center Foundation,Boulder,CO,80304
176,Round Window Institute,Boulder,CO,80304
177,Sadhana Ashram Inc C/o Steve Sabine,Boulder,CO,80304
178,Safehouse Progressive Alliance For Nonviolence Inc,Boulder,CO,80304
179,Satori Institute,Boulder,CO,80304
180,School Of Eating Good,Boulder,CO,80304
181,Seeds Of Wellness Inc,Boulder,CO,80304
182,Shanti Childrens Foundation,Boulder,CO,80304
183,Sibinacocha Watershed Project,Boulder,CO,80304
184,Siddha Yoga Dham Boulder Inc,Boulder,CO,80304
185,Snow Lion School,Boulder,CO,80304
186,Society Boulder,Boulder,CO,80304
187,Solstice Institute,Boulder,CO,80304
188,Southwest Energy Efficiency Project Llc,Boulder,CO,80304
189,Spiritual Assembly Of The Bahais Of Boulder,Boulder,CO,80304
190,Sprinces Wong Fam Foundation,Boulder,CO,80304
191,Spring Valley Mutual Water Association,Boulder,CO,80304
192,St Peters Church Inc,Boulder,CO,80304
193,Stan Mckee Reading Foundation Inc,Boulder,CO,80304
194,Star Inspired Foundation,Boulder,CO,80304
195,Starting Line Foundation,Boulder,CO,80304
196,Student And Education Support Association Inc,Boulder,CO,80304
197,Subud United States Of America,Boulder,CO,80304
198,Sustainable Alliances Inc,Boulder,CO,80304
199,Sustainable Schools International,Boulder,CO,80304
200,Swift Cycling,Boulder,CO,80304
201,Taps Are Talking Inc,Boulder,CO,80304
202,Tara Institute Of The Performing Arts Incorporated,Boulder,CO,80304
203,Tesseract Productions,Boulder,CO,80304
204,The Caruso Foundation,Boulder,CO,80304
205,The Cohousing Association Of The Us,Boulder,CO,80304
206,The International Wilderness Leadership Foundation Inc,Boulder,CO,80304
207,Tiegs Foundation Inc,Boulder,CO,80304
208,Tikkun,Boulder,CO,80304
211,Udiyan Maitreya Kosha,Boulder,CO,80304
212,United States Power Squadrons,Boulder,CO,80304
213,Unity Of Boulder,Boulder,CO,80304
214,Urban River Society Incorporated,Boulder,CO,80304
215,Village Dreams,Boulder,CO,80304
216,Waldorf School Association Of Boulder Inc,Boulder,CO,80304
217,Warmshowers Org,Boulder,CO,80304
218,Watershed School Inc,Boulder,CO,80304
219,Weatherspoon Charitable Foundation,Boulder,CO,80304
220,Windhorse Guild Inc,Boulder,CO,80304
221,Wisdom Factors International,Boulder,CO,80304
222,Women Work Together,Boulder,CO,80304
223,Wright Family Foundation,Boulder,CO,80304
224,Wright Paleohydrological Institute,Boulder,CO,80304
225,Zenko International,Boulder,CO,80304
226,Acres Of Hope,Longmont,CO,80503
227,American Association Of University Women,Longmont,CO,80503
228,American Volkssport Association Inc,Longmont,CO,80503
229,Apostolic Church In Jesus Name,Longmont,CO,80503
230,Asian-pacific Association Of Longmont,Longmont,CO,80503
231,Aspen Leaf Foundation,Longmont,CO,80503
232,Believe Ranch And Rescue,Longmont,CO,80503
233,Benevolence Retreat Society,Longmont,CO,80503
234,Beth Ami,Longmont,CO,80503
235,Blacks In Government,Longmont,CO,80503
236,Boco Baseball Inc,Longmont,CO,80503
237,Bodhisattva International Institute,Longmont,CO,80503
238,Boulder Alano Club,Longmont,CO,80503
239,Boulder Area Alumnae Panhellenic Philanthropy,Longmont,CO,80503
240,Boulder Broomfield Foster Adoptive Family Association,Longmont,CO,80503
241,Brotherhood Of Locomotive Engineers And Trainmen,Longmont,CO,80503
242,Burrell Family Foundation,Longmont,CO,80503
243,C R E A T E Globally,Longmont,CO,80503
244,Cameroon Development Fund Inc,Longmont,CO,80503
245,Caring About People,Longmont,CO,80503
246,Catte Inc,Longmont,CO,80503
247,Centre For Rural Development - Africa,Longmont,CO,80503
248,Church Of Inner Light,Longmont,CO,80503
249,Cleft Of The Rock,Longmont,CO,80503
250,Colorado Horse Rescue,Longmont,CO,80503
251,Colorado Tennis Cricket League,Longmont,CO,80503
252,Commonsensetodayorg,Longmont,CO,80503
253,Country Dance & Song Society Inc,Longmont,CO,80503
254,Deep Water Soul Care,Longmont,CO,80503
255,Delta Kappa Gamma Society,Longmont,CO,80503
256,Delta Kappa Gamma Society International,Longmont,CO,80503
257,Desiderata Educational Resource And Research Corporation,Longmont,CO,80503
258,Dodge Family Fund,Longmont,CO,80503
259,Don And Carol Schmidgall Family Foundation Inc,Longmont,CO,80503
260,Dr C W Bixler Family Foundation,Longmont,CO,80503
261,Druidawn Academy Inc,Longmont,CO,80503
262,Drylands Agroecology Research Foundation,Longmont,CO,80503
263,E4 Project Inc,Longmont,CO,80503
264,Eagle Crest Elementary Parent Teacher Organization,Longmont,CO,80503
265,Earth Tribe Ranch,Longmont,CO,80503
266,Elim Tabernacle Of Christ,Longmont,CO,80503
267,Fairy Ring Garden Inc,Longmont,CO,80503
268,Familia A Familia,Longmont,CO,80503
269,Firehouse Ministries Llc,Longmont,CO,80503
270,Foundation For A Better Economy,Longmont,CO,80503
271,Friends Of Vance Brand Airport Inc,Longmont,CO,80503
272,From Nest To Wings Inc,Longmont,CO,80503
273,Front Range Hippotherapy Inc,Longmont,CO,80503
274,Front Range Orthopedic Foundation,Longmont,CO,80503
275,Gafner Family Foundation,Longmont,CO,80503
276,Garden Bloggers Fling Of Denver,Longmont,CO,80503
277,Grace Evangelical Free Church Of Longmont Co,Longmont,CO,80503
278,Grassroots St Vrain Inc,Longmont,CO,80503
279,Hakes Wiland Christian Foundation,Longmont,CO,80503
280,Health And Ed 4 Nepal Inc,Longmont,CO,80503
281,Hoe And Hope Garden Club Inc,Longmont,CO,80503
282,Home Ownership Preservation Centerfor The Disabled,Longmont,CO,80503
283,Hover Community Inc,Longmont,CO,80503
284,Hover Village Inc,Longmont,CO,80503
285,Hygiene Pto Inc,Longmont,CO,80503
286,Indigo Foundation,Longmont,CO,80503
287,Institute For Experiential Brainbody Research,Longmont,CO,80503
288,Integrity Foundation Inc,Longmont,CO,80503
289,International Association Of Lions Clubs,Longmont,CO,80503
290,Join A Revolution Educate Drummers And Other Musicians,Longmont,CO,80503
291,Jon Rudolph Memorial Foundation,Longmont,CO,80503
292,Katherine And Charles Hover Green Houses Inc,Longmont,CO,80503
293,Knick O Time Horse Rescue And Rehabilitation,Longmont,CO,80503
295,Lake Ditch Co,Longmont,CO,80503
296,Lebor Family Foundation Inc,Longmont,CO,80503
297,Left Hand Valley Lake Association,Longmont,CO,80503
298,Lets Be Ready,Longmont,CO,80503
299,Longmont Astronomical Society,Longmont,CO,80503
300,Longmont Christian Fellowship,Longmont,CO,80503
301,Longmont Estates Elementary School Pto,Longmont,CO,80503
302,Longmont Food Rescue,Longmont,CO,80503
303,Longmont Youth Sports Organization,Longmont,CO,80503
304,Longmont Zephyrs Inc,Longmont,CO,80503
305,M I T Alumni Of Colorado,Longmont,CO,80503
306,Magic Classrooms,Longmont,CO,80503
307,Mentoring The Youth Foundation Inc,Longmont,CO,80503
308,Metro West Minnesota Branch Of The American Association Of University,Longmont,CO,80503
309,Milas Miracle Foundation Inc,Longmont,CO,80503
310,Milonee Of Colorado,Longmont,CO,80503
311,Mindfulness Peace Project,Longmont,CO,80503
312,Moms Club,Longmont,CO,80503
313,Natural Capitalism Solutions Inc,Longmont,CO,80503
314,Navy Seabee Veterans Of America,Longmont,CO,80503
315,New Hinman Ditch Company,Longmont,CO,80503
316,Next Wave Foundation,Longmont,CO,80503
317,Niwot Baseball Inc,Longmont,CO,80503
318,Niwot Elementary School Parent Teacher Advisory Council Inc,Longmont,CO,80503
319,Niwot Softball Inc,Longmont,CO,80503
320,Orley And Sheila Paxton Fundation,Longmont,CO,80503
321,Paid In Full Ministries Inc,Longmont,CO,80503
322,Parenteral Drug Association Inc,Longmont,CO,80503
323,Partners For Humam Progress Inc,Longmont,CO,80503
324,Pcdc Boosters Inc,Longmont,CO,80503
325,Peopleweaver Inc,Longmont,CO,80503
326,Philanthropiece Foundation Inc,Longmont,CO,80503
327,Professional Foundation Inc,Longmont,CO,80503
328,Quaking Aspen Quilt Guild,Longmont,CO,80503
329,Radical Love Foundation,Longmont,CO,80503
330,Raptor Activity Booster Club,Longmont,CO,80503
331,Real Realty Colorado Cares,Longmont,CO,80503
332,Rocky Mountain Christian Academy,Longmont,CO,80503
333,Rocky Mountain Christian Church,Longmont,CO,80503
334,Rocky Mountain Equi-rhythm-horses Balancing Hearts,Longmont,CO,80503
335,Rush Basketball Club Inc,Longmont,CO,80503
336,Rustic Ridge Association Inc,Longmont,CO,80503
337,S W Friedman Foundation Inc,Longmont,CO,80503
338,Save Lives And Injuries Now Inc,Longmont,CO,80503
339,Shepherd Valley School & Garden Inc,Longmont,CO,80503
340,Silver Creek Education Foundation,Longmont,CO,80503
341,Silver Creek Organization For Performing Arts,Longmont,CO,80503
342,Sound Circle Eurythmy,Longmont,CO,80503
343,Southern Mutts Rescue Inc,Longmont,CO,80503
344,St Francis Of Assisi Catholic Church,Longmont,CO,80503
345,Straight From The Heart,Longmont,CO,80503
346,Sunrise Ministries Inc,Longmont,CO,80503
347,Sunsation Inc,Longmont,CO,80503
348,Terra Foundation Inc,Longmont,CO,80503
349,The Boulder New Church School,Longmont,CO,80503
350,The Danan Schufman Scholarship Fund Inc,Longmont,CO,80503
351,The Freebsd Foundation,Longmont,CO,80503
352,The Jorgensen Foundation,Longmont,CO,80503
353,The Palmerton Consolidated Ditch Company,Longmont,CO,80503
354,The Pearson Foundation Inc,Longmont,CO,80503
355,Toastmaster International,Longmont,CO,80503
357,Vinelife Community Church Inc,Longmont,CO,80503
358,Warrior Storyfield,Longmont,CO,80503
359,Wellness International Missions Inc,Longmont,CO,80503
360,Wilderness Warrior Project,Longmont,CO,80503
361,Willow Farms Inc,Longmont,CO,80503
362,Wolf Mountain Foundation,Longmont,CO,80503
363,Womens Business Development Center,Longmont,CO,80503
364,Womens International Niwot Club,Longmont,CO,80503
365,Worldviews Calling & Culture Inc,Longmont,CO,80503
366,109 World Inc,Boulder,CO,80302
367,5280 Explorers,Boulder,CO,80302
368,5430 Kids Tennis Foundation,Boulder,CO,80302
369,Academy Charitable Foundation Inc,Boulder,CO,80302
370,Access Opportunity,Boulder,CO,80302
371,Affordable Housing Alliance Inc,Boulder,CO,80302
372,Airlink Amateur Radio Group,Boulder,CO,80302
373,Alan Lasater Outreach Foundation,Boulder,CO,80302
374,Alexia Parks 10traits Leadership Institute,Boulder,CO,80302
375,Alpha Chi Omega Fraternity Inc,Boulder,CO,80302
376,Alpha Delta Phi Colorado Chapter,Boulder,CO,80302
377,Alpha Kappa Psi Fraternity,Boulder,CO,80302
378,Alpha Phi Omega,Boulder,CO,80302
379,Alpha Sigma Phi Fraternity Inc,Boulder,CO,80302
380,American Solar Energy Society Inc,Boulder,CO,80302
381,Americas For The Arts,Boulder,CO,80302
382,Anchor Point Foundation,Boulder,CO,80302
383,Animal Vegetable Mineral Inc,Boulder,CO,80302
384,Animal Watch,Boulder,CO,80302
385,Anthony And Dorothy Riddle Family Foundation,Boulder,CO,80302
386,Association Of Energy Engineers Inc,Boulder,CO,80302
387,Association Of North American Professional Road Cyclists,Boulder,CO,80302
388,Attention Inc,Boulder,CO,80302
389,Autism Society Of America-boulder County Inc,Boulder,CO,80302
390,Band Of Toughs,Boulder,CO,80302
391,Believe In Miracles,Boulder,CO,80302
392,Benedict Miller Foundation,Boulder,CO,80302
393,Beta Mu Building And Alumnae Association,Boulder,CO,80302
394,Big Green,Boulder,CO,80302
395,Billion People Project,Boulder,CO,80302
396,Bjb Charitable Account,Boulder,CO,80302
397,Blueplacard Inc,Boulder,CO,80302
398,Bolder World Foundation,Boulder,CO,80302
399,Boulder - Ramat Hanegev Sister City Initiative,Boulder,CO,80302
400,Boulder Center For The Performing Arts Inc,Boulder,CO,80302
401,Boulder Chamber Of Commerce,Boulder,CO,80302
402,Boulder Climbing Community,Boulder,CO,80302
403,Boulder Contact Lab,Boulder,CO,80302
404,Boulder Convention And Visitors Bureau,Boulder,CO,80302
405,Boulder County Aids Project,Boulder,CO,80302
406,Boulder County Arts Alliance Inc,Boulder,CO,80302
407,Boulder County Bar Association,Boulder,CO,80302
408,Boulder County Bar Foundation,Boulder,CO,80302
409,Boulder County Farmers Market,Boulder,CO,80302
410,Boulder County Fire Fighters Association,Boulder,CO,80302
411,Boulder Day Nursery,Boulder,CO,80302
412,Boulder Ensemble Theatre Company,Boulder,CO,80302
413,Boulder Flatirons Rotary Foundation A Nonprofit Corporation,Boulder,CO,80302
414,Boulder Food And Wine Festival Nfp,Boulder,CO,80302
415,Boulder Green Building Foundation,Boulder,CO,80302
416,Boulder Green Building Guild,Boulder,CO,80302
417,Boulder High School Music Parents Association,Boulder,CO,80302
418,Boulder High School Panther Club,Boulder,CO,80302
419,Boulder Historical Society Inc,Boulder,CO,80302
420,Boulder Hospice Foundation,Boulder,CO,80302
421,Boulder Housing Coalition,Boulder,CO,80302
422,Boulder Interdisciplinary Committee,Boulder,CO,80302
423,Boulder International Fringe Festival Inc,Boulder,CO,80302
424,Boulder Kathmandu Sister City Project,Boulder,CO,80302
425,Boulder Museum Of Contemporary Art,Boulder,CO,80302
426,Boulder Philharmonic Orchestra,Boulder,CO,80302
427,Boulder Presbyterian Housing Inc,Boulder,CO,80302
428,Boulder Public Library Foundation Inc,Boulder,CO,80302
429,Boulder Sister Cities Program,Boulder,CO,80302
430,Boulder Synchronized Swimming Association Inc,Boulder,CO,80302
431,Boulder Treasures Inc,Boulder,CO,80302
432,Boulder United Methodist Missionpartners Bummp Inc,Boulder,CO,80302
433,Boulder Valley Rotary Foundation,Boulder,CO,80302
434,Boulder Writing Studio,Boulder,CO,80302
435,Bouldershares,Boulder,CO,80302
436,Bowana Foundation,Boulder,CO,80302
437,Brett Family Foundation,Boulder,CO,80302
438,Bridge To Justice,Boulder,CO,80302
439,Building Cooperative,Boulder,CO,80302
440,Caribbean Coral Restoration Center,Boulder,CO,80302
441,Celebrate Autism Inc,Boulder,CO,80302
442,Center For Better Education,Boulder,CO,80302
443,Chabad Center At University Of Colorado Inc,Boulder,CO,80302
444,Cherryvale Elder Housing,Boulder,CO,80302
445,Chh Charitable Trust,Boulder,CO,80302
446,Chi Omega Fraternity,Boulder,CO,80302
447,Chi Omega House Association Zeta,Boulder,CO,80302
448,Church Of Faith And Hope,Boulder,CO,80302
449,Church Of The Merrimen,Boulder,CO,80302
450,Cipa Education And Literacy Foundation,Boulder,CO,80302
451,Clean Sport Collective,Boulder,CO,80302
452,Co Labs Inc,Boulder,CO,80302
453,Colorado Chautauqua Association,Boulder,CO,80302
454,Colorado Chi Chapter Of Sigma Alpha Epsilon,Boulder,CO,80302
455,Colorado Healthcare Ethics Forum Inc,Boulder,CO,80302
456,Colorado Masterworks Chorus,Boulder,CO,80302
457,Colorado Mountain Horse Rescue,Boulder,CO,80302
458,Colorado Music Festival,Boulder,CO,80302
459,Colorado Music Festival Endowment Fund,Boulder,CO,80302
460,Colorado Regional Meeting Of The Religious Society Of Friends,Boulder,CO,80302
461,Conscious Alliance,Boulder,CO,80302
462,Conservantion,Boulder,CO,80302
464,Dairy Center For The Arts,Boulder,CO,80302
465,Danelle Helander & The Company Inc,Boulder,CO,80302
466,De Chen Yon Ten Dzo Meditation Center,Boulder,CO,80302
467,Delta Sigma Phi Fraternity Inc,Boulder,CO,80302
468,Democratic Women Of Boulder County,Boulder,CO,80302
469,Dglobalorg,Boulder,CO,80302
470,Dharma Ocean Foundation,Boulder,CO,80302
471,Douglas And Abby Brown Family Foundation,Boulder,CO,80302
472,Downtown Boulder Foundation Inc,Boulder,CO,80302
473,Downtown Boulder Partnership,Boulder,CO,80302
474,E Town,Boulder,CO,80302
475,Ecclesia,Boulder,CO,80302
476,Ecological Consultants For The Public Interest,Boulder,CO,80302
477,El Centro Amistad,Boulder,CO,80302
478,Elephant Talk,Boulder,CO,80302
479,Enneagram Studies In The Narrative Tradition,Boulder,CO,80302
480,Entrepreneurial Foundation,Boulder,CO,80302
481,Environmental Center Of The Rockies,Boulder,CO,80302
482,Episcopal Ministries At University Of Colorado Boulder,Boulder,CO,80302
483,Eta Gamma Housing Corporation,Boulder,CO,80302
484,Expression Of Life Foundation Inc,Boulder,CO,80302
485,Faith4all,Boulder,CO,80302
486,First Congregational Church Of Boulder Foundation,Boulder,CO,80302
487,First Presbyterian Preschool Of Boulder Inc,Boulder,CO,80302
488,Five Circles Inc,Boulder,CO,80302
489,Flatirons Elementary Pto,Boulder,CO,80302
490,Flint Ministries Inc,Boulder,CO,80302
491,Fox Institute For Creation Spirituality,Boulder,CO,80302
492,Friends Of Colorado Usar,Boulder,CO,80302
493,Gamechanger Foundation Inc,Boulder,CO,80302
495,Gamma Phi Beta Sorority Inc,Boulder,CO,80302
496,Geoexplorers Nonprofit Corporation,Boulder,CO,80302
497,Give Back Yoga Foundation,Boulder,CO,80302
498,Glider,Boulder,CO,80302
499,Gold Hill Town Meeting Inc,Boulder,CO,80302
500,Golok Scholarship Foundation,Boulder,CO,80302
501,Gratis 7 Media Group Inc,Boulder,CO,80302
502,Green Streets,Boulder,CO,80302
503,Greenhouse Scholars,Boulder,CO,80302
504,Hammond Boys And Girls Center,Boulder,CO,80302
505,Hcfc1 International Research Foundation,Boulder,CO,80302
506,Her Many Voices Foundation,Boulder,CO,80302
507,Hill Boulder Merchant Association Inc,Boulder,CO,80302
508,His Original Design,Boulder,CO,80302
509,Historic Boulder Inc,Boulder,CO,80302
510,Historic Gold Hill Inc,Boulder,CO,80302
511,Humanwire 501,Boulder,CO,80302
512,Hydroecologic Research,Boulder,CO,80302
513,Iempathize,Boulder,CO,80302
514,Immersion Journals,Boulder,CO,80302
515,Impact Hub Academy,Boulder,CO,80302
517,Inliners International Inc,Boulder,CO,80302
518,Institute For Alliances,Boulder,CO,80302
519,Institute For Cultural Evolution,Boulder,CO,80302
520,Institute Of Advanced Diagnostics Corp,Boulder,CO,80302
521,International Institute For Simplified Kundalini Yoga,Boulder,CO,80302
522,International Jazz Advocacy Missioninc,Boulder,CO,80302
523,International Research Center For Energy & Economic Development,Boulder,CO,80302
524,International Society For Krishna Consciousness Of Boulder Inc,Boulder,CO,80302
525,International Society For Media Religion And Culture,Boulder,CO,80302
526,Interweave Dance Theatre Of Boulder Inc,Boulder,CO,80302
527,Jackling Foundation,Boulder,CO,80302
528,Jared Polis Foundation,Boulder,CO,80302
529,Jesusonian Foundation,Boulder,CO,80302
530,Joseph Russo Foundation,Boulder,CO,80302
531,Kammerer Foundation,Boulder,CO,80302
532,Kappa Alpha Theta Fraternity,Boulder,CO,80302
533,Kappa Kappa Gamma Fraternity Inc,Boulder,CO,80302
534,Kappa Sigma Fraternity,Boulder,CO,80302
535,Kappa Sigma Fraternity 343,Boulder,CO,80302
536,Kedumah Institute,Boulder,CO,80302
537,Kenney-west Fund Ltd,Boulder,CO,80302
538,Kesho Fund,Boulder,CO,80302
539,Klein Frank Foundation,Boulder,CO,80302
540,Klug Content Group Inc,Boulder,CO,80302
541,Knights Of Columbus,Boulder,CO,80302
542,Konchok Foundation,Boulder,CO,80302
543,L P Brown Foundation,Boulder,CO,80302
544,La Lumiere Foundation,Boulder,CO,80302
545,Lambda Chi Alpha Fraternity Inc,Boulder,CO,80302
546,Learning For Living Institute,Boulder,CO,80302
547,Let S Play,Boulder,CO,80302
548,Library People-friends Of Colorado Libraries,Boulder,CO,80302
549,Little Pockets,Boulder,CO,80302
550,Lutheran Campus Ministry At The University Of Colorado,Boulder,CO,80302
551,Maji Safi Group,Boulder,CO,80302
552,Manny Feder Memorial Foundation,Boulder,CO,80302
553,Mariposa Collective,Boulder,CO,80302
554,Martyred Angels Foundation,Boulder,CO,80302
555,Marvin Naiman And Margery Goldman Family Foundation,Boulder,CO,80302
556,Meals On Wheels Of Boulder Inc,Boulder,CO,80302
557,Mediators Foundation Inc,Boulder,CO,80302
558,Mental Health Center Of Boulder County Inc,Boulder,CO,80302
559,Merlin Foundation,Boulder,CO,80302
560,Mesa Swim Team Inc,Boulder,CO,80302
561,Met Ed Co,Boulder,CO,80302
562,Mothers And Mentors Alliance,Boulder,CO,80302
563,Mountain Majesty Ministries Inc,Boulder,CO,80302
564,Mountain Meddlers,Boulder,CO,80302
565,Mountain Summers Inc,Boulder,CO,80302
566,Naropa University,Boulder,CO,80302
567,National American Indian Court Judges Association,Boulder,CO,80302
568,Native American Rights Fund,Boulder,CO,80302
569,Natural Highs--healthy Alternatives To Drugs And Alcohol,Boulder,CO,80302
570,Naturally Boulder Inc,Boulder,CO,80302
571,New Voice Strategies,Boulder,CO,80302
572,Nexial Institute,Boulder,CO,80302
573,Nu Rho Psi-the National Honor Society In Neuroscience,Boulder,CO,80302
574,One World Running Inc,Boulder,CO,80302
575,Open Source Hardware Association,Boulder,CO,80302
576,Opportunity Tree,Boulder,CO,80302
577,Pacific Art Society,Boulder,CO,80302
578,Parent Advisory Council Of Boulder,Boulder,CO,80302
579,Parlando Incorporated,Boulder,CO,80302
580,Path Of The Ceremonial Arts,Boulder,CO,80302
581,Patriot Boot Camp,Boulder,CO,80302
582,Peopleforbikes Coalition Ltd,Boulder,CO,80302
583,Peopleforbikes Foundation,Boulder,CO,80302
584,Person To Person,Boulder,CO,80302
585,Pi Beta Phi Fraternity,Boulder,CO,80302
586,Pi Kappa Alpha Fraternity,Boulder,CO,80302
587,Pi Kappa Phi Fraternity,Boulder,CO,80302
588,Pillar Of Fire Boulder,Boulder,CO,80302
589,Porphyry Road Foundation,Boulder,CO,80302
590,Project Possum Inc,Boulder,CO,80302
591,Project Youth Learning And Leadership,Boulder,CO,80302
592,Psychedelic Club,Boulder,CO,80302
595,Puzzle Piece Ministries,Boulder,CO,80302
596,Queer Asterisk,Boulder,CO,80302
597,Quilts For Kids,Boulder,CO,80302
598,Radio Frequency Biological Research,Boulder,CO,80302
599,Rainbow Sparkle Foundation,Boulder,CO,80302
600,Research And Counselling Foundation For African Migrants Recfam Inc,Boulder,CO,80302
601,Resident Representative Council Inc,Boulder,CO,80302
602,Resource Central,Boulder,CO,80302
603,Rocky Mountain Brainspotting Institute,Boulder,CO,80302
604,Rocky Mountain Chassidic Center,Boulder,CO,80302
605,Rocky Mountain French Bulldog Rescue,Boulder,CO,80302
606,Rtc Impact Fund,Boulder,CO,80302
607,Running Horse Foundation,Boulder,CO,80302
608,Sakyong Potrang,Boulder,CO,80302
609,Sakyongs Foundation,Boulder,CO,80302
610,Salina Community Association Inc,Boulder,CO,80302
611,Scuola Internazionale Della Scultura,Boulder,CO,80302
612,Seac Scholarship Fund Inc,Boulder,CO,80302
613,Secretariat Foundation Inc,Boulder,CO,80302
614,Seisolo Foundation,Boulder,CO,80302
615,September Schools Inc,Boulder,CO,80302
616,Shambhala International Vajradhatu,Boulder,CO,80302
617,Shambhala Usa,Boulder,CO,80302
618,Shefah Inc,Boulder,CO,80302
619,Sheila Fortune Foundation,Boulder,CO,80302
620,Shekhina House,Boulder,CO,80302
621,Sigma Tau Gamma Fraternity,Boulder,CO,80302
622,Slow Food Usa Inc,Boulder,CO,80302
623,Society For Creative Aging,Boulder,CO,80302
624,Sogetsu Colorado Branch,Boulder,CO,80302
625,Sorenson Family Foundation,Boulder,CO,80302
626,Source International Us,Boulder,CO,80302
627,Starfall Education Foundation,Boulder,CO,80302
628,Startingbloc Nfp,Boulder,CO,80302
629,Stories On Stage,Boulder,CO,80302
630,Studio Arts Boulder Inc,Boulder,CO,80302
631,Sunshine Cemetery Association,Boulder,CO,80302
632,Tabitha International,Boulder,CO,80302
633,Tau Kappa Epsilon Fraternity Inc,Boulder,CO,80302
634,Tcfso,Boulder,CO,80302
635,Team Colorado Of The Rockies Inc,Boulder,CO,80302
636,The Association Of Brewers Inc,Boulder,CO,80302
637,The Boulder Ballet,Boulder,CO,80302
638,The Community Foundation,Boulder,CO,80302
639,The First Baptist Church Of Boulder Colorado,Boulder,CO,80302
640,The Hopper,Boulder,CO,80302
641,The Milagro Charitable Supporting Organization,Boulder,CO,80302
642,The Orphiflamme Foundation,Boulder,CO,80302
643,The Rocky Mountain 356 Porsche Club,Boulder,CO,80302
644,The Shine Network Foundation,Boulder,CO,80302
645,The Unreasonable Institute,Boulder,CO,80302
646,The Upstart Crow Inc,Boulder,CO,80302
647,The Wain And Hildegard Stowe Family Foundation Inc,Boulder,CO,80302
648,The Well,Boulder,CO,80302
649,Theta Beta Delta Delta Delta Building Association Inc,Boulder,CO,80302
650,Theta Beta House Corporation Of Delta Delta Delta Fraternity,Boulder,CO,80302
651,Theta Xi Fraternity,Boulder,CO,80302
652,Third Law Dance-theater Inc,Boulder,CO,80302
653,Timely Rain,Boulder,CO,80302
655,Toby Wintrub Charitable Foundation,Boulder,CO,80302
656,Topplers,Boulder,CO,80302
657,Transformation Foundation,Boulder,CO,80302
658,Tri For Success,Boulder,CO,80302
659,Trinity Commons Housing Corporation,Boulder,CO,80302
660,Turning Foundation,Boulder,CO,80302
661,Turning The Wheel Productions Inc,Boulder,CO,80302
662,United Christian Foundation,Boulder,CO,80302
663,University Lutheran Chapel,Boulder,CO,80302
664,University Of Colorado Mba Association,Boulder,CO,80302
665,University Of Colorado Sailing Team,Boulder,CO,80302
666,Us Terrain Park Council Inc,Boulder,CO,80302
667,Usa Track & Field Inc,Boulder,CO,80302
668,Vajradhatu,Boulder,CO,80302
669,Veterans Speak,Boulder,CO,80302
670,Vidyadhara Foundation,Boulder,CO,80302
671,W W Reynolds Foundation Inc,Boulder,CO,80302
672,We Share Earth Inc,Boulder,CO,80302
673,Wessell Family Foundation,Boulder,CO,80302
674,Western Grace Conference Association,Boulder,CO,80302
675,Western Resource Advocates,Boulder,CO,80302
676,Wild Mane Ranch,Boulder,CO,80302
677,Winer Foundation Inc,Boulder,CO,80302
678,World Leadership Foundation Inc,Boulder,CO,80302
679,Yesod Foundation,Boulder,CO,80302
680,Young Heroes Project,Boulder,CO,80302
681,Your English School,Boulder,CO,80302
682,Ywca Boulder County,Boulder,CO,80302
683,Zero Waste For Zero Loss,Boulder,CO,80302
684,Zeta Beta Tau,Boulder,CO,80302
685,17742 Foundation,Boulder,CO,80301
686,303 Project,Boulder,CO,80301
687,84000,Boulder,CO,80301
688,Acupuncture Innovation,Boulder,CO,80301
689,Aerospace Legacy Engineering And Technology Recovery Organization,Boulder,CO,80301
690,Afghans4tomorrow Inc,Boulder,CO,80301
691,Afp Consortium,Boulder,CO,80301
692,Agile-International,Boulder,CO,80301
693,Ahimsa,Boulder,CO,80301
694,Alpha Delta Kappa Sorority Inc,Boulder,CO,80301
695,American Legion Auxiliary,Boulder,CO,80301
696,American Legion Post 0010 Boulder,Boulder,CO,80301
697,American Mountain Guides Association,Boulder,CO,80301
699,Ancient Free & Accepted Masons Of Colorado,Boulder,CO,80301
700,Arrow Journal,Boulder,CO,80301
701,Art Sticks,Boulder,CO,80301
702,Asia Transpacific Foundation,Boulder,CO,80301
703,Athletes With Shoes To Share Inc,Boulder,CO,80301
704,Audio Information Network Of Colorado,Boulder,CO,80301
705,Authentic Relating International,Boulder,CO,80301
706,Avadhuta Foundation,Boulder,CO,80301
707,Avancera,Boulder,CO,80301
708,Be Zero,Boulder,CO,80301
709,Beadforlife,Boulder,CO,80301
710,Belize Acute Care And Trauma Surgery,Boulder,CO,80301
711,Benevolent & Protective Order Of Elks Of The Usa,Boulder,CO,80301
712,Big Life Foundation,Boulder,CO,80301
713,Blue Star Mothers Of America Inc,Boulder,CO,80301
714,Bohua Chinese School A Colorado Non-profit Corporation,Boulder,CO,80301
715,Boulder Cancer Fighters,Boulder,CO,80301
716,Boulder Chinese Baptist Church,Boulder,CO,80301
717,Boulder Community Broadcast Association Incorporated,Boulder,CO,80301
718,Boulder Community Health,Boulder,CO,80301
719,Boulder Community Health Foundation,Boulder,CO,80301
720,Boulder Community Rowing Inc,Boulder,CO,80301
721,Boulder County Amateur Radio Emergency Services Inc,Boulder,CO,80301
722,Boulder County Intergroup,Boulder,CO,80301
723,Boulder County Medical Society,Boulder,CO,80301
724,Boulder County Regional Fire Training Center,Boulder,CO,80301
725,Boulder County Rsvp Board Inc,Boulder,CO,80301
726,Boulder County Soccer Club,Boulder,CO,80301
727,Boulder County Workforce Development Board,Boulder,CO,80301
728,Boulder Friends Of Jung,Boulder,CO,80301
729,Boulder Masonic Association Inc,Boulder,CO,80301
730,Boulder Municipal Sports Center,Boulder,CO,80301
731,Boulder Parenting In Diversity,Boulder,CO,80301
732,Boulder Police Officers Association,Boulder,CO,80301
733,Boulder Preparatory High School,Boulder,CO,80301
734,Boulder Rural Firefighter Foundation Inc,Boulder,CO,80301
735,Boulder School,Boulder,CO,80301
736,Boulder Unit No 359 The American Contract Bridge League,Boulder,CO,80301
737,Boulder Valley Womens Health Center Inc,Boulder,CO,80301
738,Breast Cancer Survivors And Friends,Boulder,CO,80301
739,Briles Family Foundation,Boulder,CO,80301
740,Burns Family Foundation,Boulder,CO,80301
741,Calvary Bible Evangelical Free Church,Boulder,CO,80301
742,Capstone Foundation,Boulder,CO,80301
743,Center For People With Disabilities,Boulder,CO,80301
744,Center For Space Entrepreneurship,Boulder,CO,80301
745,Ceo 4 Teens,Boulder,CO,80301
746,Certified Commercial Property Inspectors Association,Boulder,CO,80301
747,Chamber Music Society Of Boulder,Boulder,CO,80301
748,Charlies Guys,Boulder,CO,80301
749,Chef Ann Foundation,Boulder,CO,80301
750,Christie Cadwell Foundation,Boulder,CO,80301
751,Cindy Brandle Dance Company,Boulder,CO,80301
752,Co2 Sciences Inc,Boulder,CO,80301
753,Coleman Colorado Foundation,Boulder,CO,80301
754,Colorado Association Of Business Intermediaries Inc,Boulder,CO,80301
755,Colorado Nepal Youth Club,Boulder,CO,80301
756,Colorado Veterans Support Inc,Boulder,CO,80301
757,Common Body,Boulder,CO,80301
758,Community Cycles,Boulder,CO,80301
759,Community Link,Boulder,CO,80301
760,Community Restorative Justice Partnership,Boulder,CO,80301
761,Computational Thinking Foundation,Boulder,CO,80301
762,Conference On Precision Electro-magnetic Measurements,Boulder,CO,80301
763,Coogan Sisters,Boulder,CO,80301
764,Cool Girls Science And Art Club,Boulder,CO,80301
765,Cozy Coats For Kids Inc,Boulder,CO,80301
766,Dance To Be Free,Boulder,CO,80301
767,Dart Inc,Boulder,CO,80301
768,Denver International Christian Church,Boulder,CO,80301
769,Digna Global Inc,Boulder,CO,80301
770,Ditch And Reservoir Company Alliance,Boulder,CO,80301
771,Drukpa Mila Center,Boulder,CO,80301
772,Dykes Family Charitable Tr,Boulder,CO,80301
773,Ecs Therapy Center,Boulder,CO,80301
774,Edgestrider Academy,Boulder,CO,80301
775,Edmund T & Eleanor Quick Foundation Inc,Boulder,CO,80301
776,Edward And Janet Ahlstrand Fam Foundation,Boulder,CO,80301
777,Edward O Lund Foundation,Boulder,CO,80301
778,Elevations Credit Union,Boulder,CO,80301
779,Elevations Foundation Inc,Boulder,CO,80301
780,Eye Health Institute Inc,Boulder,CO,80301
781,Family Hospice Foundation,Boulder,CO,80301
782,Family Learning Center Inc,Boulder,CO,80301
783,Farmers Ditch Company,Boulder,CO,80301
784,Fc Boulder,Boulder,CO,80301
785,Fhs-bhs After Prom Inc,Boulder,CO,80301
786,Flowering Hope Foundation,Boulder,CO,80301
787,Flywheel Project,Boulder,CO,80301
788,Foot Of The Rockies Cat Club,Boulder,CO,80301
789,Foundation For A Future,Boulder,CO,80301
790,Foundation For Human Enrichment,Boulder,CO,80301
791,Frequent Flyers Productions Inc,Boulder,CO,80301
792,Friends Of Boulder County Sheriff K9 Association,Boulder,CO,80301
793,Friends Of Boulder Fire-Rescue,Boulder,CO,80301
794,Friends Of Surmang Inc,Boulder,CO,80301
795,Friends Of The Goldlab Symposium,Boulder,CO,80301
796,Friends Of Universal Masonry Foundation Inc,Boulder,CO,80301
797,Fund For The New School,Boulder,CO,80301
798,Geological Society Of America Foundation,Boulder,CO,80301
799,Geological Society Of America Inc,Boulder,CO,80301
800,Global Committee For Cctf,Boulder,CO,80301
801,Global Greengrants Fund Inc,Boulder,CO,80301
802,Go3 Foundation,Boulder,CO,80301
803,Grief Support Network,Boulder,CO,80301
805,Harvest Baptist Church,Boulder,CO,80301
806,Harvest Of Hope Pantry,Boulder,CO,80301
807,Hawkins Centers Of Learning Inc,Boulder,CO,80301
808,Heart Strides,Boulder,CO,80301
809,Heatherwood Parent Teacher Organization,Boulder,CO,80301
810,Heavens Hope Foundation,Boulder,CO,80301
811,Homestead Homeowners Association Inc,Boulder,CO,80301
812,Hoops Family Foundation,Boulder,CO,80301
813,House Of Genius,Boulder,CO,80301
814,Independent Order Of Odd Fellows,Boulder,CO,80301
815,Integral Leadership In Action,Boulder,CO,80301
816,Intercambio De Comunidades,Boulder,CO,80301
817,Internachi Foundation,Boulder,CO,80301
818,International Association Of Certified Home Inspectors,Boulder,CO,80301
819,International Center For Mental Health And Human Rights,Boulder,CO,80301
820,International Center For Play Therapy And Research,Boulder,CO,80301
821,International Cryogenic Materials Conference,Boulder,CO,80301
822,Isla Animals,Boulder,CO,80301
823,It Takes A Village Childrens Center Of Boulder Inc,Boulder,CO,80301
824,Jay Road Church Of Christ,Boulder,CO,80301
825,Jennifer Woods Tierney Foundation,Boulder,CO,80301
826,Keys To College Education Network Inc,Boulder,CO,80301
827,Krd Foundation,Boulder,CO,80301
828,Lake Eldora Racing Team Association,Boulder,CO,80301
829,Lena Foundation,Boulder,CO,80301
830,Living Electricity Institute,Boulder,CO,80301
831,Living With Harmony Inc,Boulder,CO,80301
832,Local Theater Company,Boulder,CO,80301
833,Lotus Treasure,Boulder,CO,80301
834,Luhu Brain Illness Gateway Group,Boulder,CO,80301
835,Master Inspector Certificationboard Inc,Boulder,CO,80301
836,Midwest Collegiate Taekwondo Conference,Boulder,CO,80301
837,Mile-hi Golden Retriever Club,Boulder,CO,80301
838,Minority Issues Coalition,Boulder,CO,80301
839,Mipham Shedra,Boulder,CO,80301
840,Montessori Education Center Of The Rockies Inc,Boulder,CO,80301
841,Moon & Stars Foundation,Boulder,CO,80301
842,Mountain Shadows Montessori School,Boulder,CO,80301
843,Nancy Spanier Dance Theatre Of Colorado Inc,Boulder,CO,80301
844,National Association Of Certified Home Inspectors,Boulder,CO,80301
845,National Center For Higher Education Management Systems,Boulder,CO,80301
846,National Conference Of Standards Laboratories,Boulder,CO,80301
847,National Council For State Authorization Reciprocity Agreemen,Boulder,CO,80301
848,National Council On Education For The Ceramic Arts,Boulder,CO,80301
849,National Ecological Observatory Network Inc,Boulder,CO,80301
850,National Institute For Trial Advocacy,Boulder,CO,80301
851,National Society Of The Daughters Of The American Revolution,Boulder,CO,80301
852,Nchems Management Services Inc,Boulder,CO,80301
853,Nehemiah Gateway Usa Inc,Boulder,CO,80301
854,Neighborhood Opportunity Resources Inc,Boulder,CO,80301
855,New Day Covenant Church Boulder Co,Boulder,CO,80301
856,Nita Foundation,Boulder,CO,80301
857,North Boulder Little League,Boulder,CO,80301
858,Obligatory Themes,Boulder,CO,80301
859,Ocean First Institute,Boulder,CO,80301
860,One Project,Boulder,CO,80301
861,One Society International,Boulder,CO,80301
862,Open Heart Academy,Boulder,CO,80301
863,Origins Community,Boulder,CO,80301
864,Osel Dorje Nyingpo,Boulder,CO,80301
865,Outdoor Industry Association,Boulder,CO,80301
866,Pangje Foundation,Boulder,CO,80301
867,Paradigm Nouveau Foundation,Boulder,CO,80301
868,Pardes Levavot,Boulder,CO,80301
869,Pmc Group,Boulder,CO,80301
870,Preserving The Vision Org,Boulder,CO,80301
871,Project V E T S,Boulder,CO,80301
872,Protect Our Mother Inc,Boulder,CO,80301
873,Public Media Company,Boulder,CO,80301
874,R David And Suzanne A Hoover Charitable Trust,Boulder,CO,80301
875,Red Balloon Network,Boulder,CO,80301
876,Regroup Foundation,Boulder,CO,80301
877,Rentry,Boulder,CO,80301
878,Rescue Ranch Animal Sanctuary,Boulder,CO,80301
879,Rock Creek Flyers Swim Team Inc,Boulder,CO,80301
880,Rockwell Ridewell Foundation,Boulder,CO,80301
882,Rocky Mountain Dressage Society Incorporated,Boulder,CO,80301
883,Rocky Mountain Institute International,Boulder,CO,80301
884,Rocky Mountain Rescue Group Inc,Boulder,CO,80301
885,Rocky Mt Parish Health Ministry,Boulder,CO,80301
886,Rolf Institute,Boulder,CO,80301
887,Sangha Foundation,Boulder,CO,80301
888,Savesarajevo,Boulder,CO,80301
889,Science And Technology In Atmospheric Research Institute,Boulder,CO,80301
890,Shambhala-nalanda Foundation,Boulder,CO,80301
891,Skicarpool,Boulder,CO,80301
892,Sklar Family Foundation,Boulder,CO,80301
893,Smiling Life Foundation,Boulder,CO,80301
894,Society For Preservation & Encourmt Of Barbershop Quartet Singing Amer,Boulder,CO,80301
895,Society Of Manufacturing Engineeres,Boulder,CO,80301
896,Solid State Depot,Boulder,CO,80301
897,Space Science Institute,Boulder,CO,80301
898,Spellbinders,Boulder,CO,80301
899,State Higher Education Executive,Boulder,CO,80301
900,Stem Rev,Boulder,CO,80301
901,Temple Grandin School,Boulder,CO,80301
902,Th Boulder Renaissance Consort,Boulder,CO,80301
903,The Acorn School For Early Childhood Development,Boulder,CO,80301
904,The Action Committee For Eldorado,Boulder,CO,80301
905,The Big Red F Family Fund,Boulder,CO,80301
906,The Cielo Foundation,Boulder,CO,80301
907,The Family Mayer Foundation Inc,Boulder,CO,80301
908,The Foundation For Student Success Inc,Boulder,CO,80301
909,The Gores Foundation,Boulder,CO,80301
910,The Humane Society Of Boulder Valley Inc,Boulder,CO,80301
911,The Outdoor Foundation,Boulder,CO,80301
912,The Q D Foundation Inc,Boulder,CO,80301
913,The Renaissance Scots Living History Assn,Boulder,CO,80301
914,The@elizabeth F Walker Foundation,Boulder,CO,80301
915,There With Care,Boulder,CO,80301
916,Thistle Community Housing,Boulder,CO,80301
917,Thomas & Frances Mcgregor Foundation,Boulder,CO,80301
920,Torch Club Of Boulder Colorado,Boulder,CO,80301
921,Treasure Caretaker Training,Boulder,CO,80301
922,Trout Unlimited,Boulder,CO,80301
923,Unavco Inc,Boulder,CO,80301
924,United States National Chapter Of The International Association Of,Boulder,CO,80301
925,University Corporation For Atmospheric Research,Boulder,CO,80301
926,Up For Pups,Boulder,CO,80301
927,Usa Climbing,Boulder,CO,80301
928,Via Mobility Services,Boulder,CO,80301
929,Voices For Children Inc,Boulder,CO,80301
930,Voices Foundation,Boulder,CO,80301
931,Vuhaus Corp,Boulder,CO,80301
932,Wealthorg,Boulder,CO,80301
933,Western Interstate Commission For Higher Education,Boulder,CO,80301
934,White Dwarf Research Corporation,Boulder,CO,80301
935,Who Dreams Wins Foundation,Boulder,CO,80301
936,Wildlands Restoration Volunteers,Boulder,CO,80301
937,Witness Inc,Boulder,CO,80301
938,Wolf Family Foundation,Boulder,CO,80301
939,Womens Wilderness Institute,Boulder,CO,80301
940,World Singing Day,Boulder,CO,80301
941,Youth Opportunities Inc,Boulder,CO,80301
942,Ziji Early Elementary School Llc,Boulder,CO,80301
943,American Association Of Teachers Of Japanese Inc,Boulder,CO,80309
944,American Institute Of Aeronautics And Astronautics Inc,Boulder,CO,80309
945,Arnold Air Society-silver Wings,Boulder,CO,80309
946,Association For Computing Machinery,Boulder,CO,80309
947,Beta Alpha Psi National Council,Boulder,CO,80309
948,Chi Beta Phi Scientific Honorary,Boulder,CO,80309
949,Colorado Association Of Law Libraries,Boulder,CO,80309
950,Colorado Longitudinal Study,Boulder,CO,80309
951,Colorado National Golf Foundation,Boulder,CO,80309
952,Colorado Teachers Of English To Speakers Of Other Languages,Boulder,CO,80309
953,Cu Boulder Veterans Alumni Club,Boulder,CO,80309
954,National Center For Women And Information Technology,Boulder,CO,80309
955,Phi Beta Kappa Society,Boulder,CO,80309
956,Phi Sigma Rho National Sorority,Boulder,CO,80309
957,Pi Mu Epsilon Fraternity,Boulder,CO,80309
958,Psi Chi The National Honor Society In Psychology,Boulder,CO,80309
959,Society Of Women Engineers,Boulder,CO,80309
960,University Of Colorado Golden Buffalo Marching Band Alumni,Boulder,CO,80309
961,500 Women Scientists,Boulder,CO,80303
962,Acoustic Emission Working Group,Boulder,CO,80303
963,Al-shaahed -the Witness,Boulder,CO,80303
964,All About The Kids Inc,Boulder,CO,80303
965,Aloran Foundation,Boulder,CO,80303
966,Alpha Psi Delta Educational Foundation Inc,Boulder,CO,80303
967,Bdt Academy,Boulder,CO,80303
968,Bicycle Wholesale Distributors Association Inc,Boulder,CO,80303
969,Big Thompson Manor Ii,Boulder,CO,80303
970,Big Thompson Manor Inc,Boulder,CO,80303
971,Boulder Bike Sharing,Boulder,CO,80303
972,Boulder Chorale,Boulder,CO,80303
973,Boulder Council For International Visitors Inc,Boulder,CO,80303
974,Boulder County Center For Judaism,Boulder,CO,80303
975,Boulder Crisis Pregnancy Center,Boulder,CO,80303
976,Boulder Dance Coalition,Boulder,CO,80303
977,Boulder Fish And Game Inc,Boulder,CO,80303
978,Boulder Flatirons Foursquare Church,Boulder,CO,80303
979,Boulder Genealogical Society,Boulder,CO,80303
980,Boulder International Folk Dancers,Boulder,CO,80303
981,Boulder Jewish Community Center,Boulder,CO,80303
982,Boulder Jewish Community Foundation,Boulder,CO,80303
983,Boulder Jewish Fellowship Inc,Boulder,CO,80303
984,Boulder Jewish News Inc,Boulder,CO,80303
985,Boulder Korean Church,Boulder,CO,80303
986,Boulder Muse,Boulder,CO,80303
987,Boulder Nordic Club,Boulder,CO,80303
988,Boulder Track Club Incorporated,Boulder,CO,80303
989,Boulder Valley Christian Church,Boulder,CO,80303
990,Boulder Valley Church Of Christ,Boulder,CO,80303
991,Boulder Valley Education Assoc,Boulder,CO,80303
992,Bowing For Change,Boulder,CO,80303
993,Brainworks Tbi,Boulder,CO,80303
994,Camp For Change Inc,Boulder,CO,80303
995,Camp Wardrobe Malfunktion,Boulder,CO,80303
996,Chipsi Alpha Psi Delta Corp,Boulder,CO,80303
997,Christian Home Fellowship Of Boulder,Boulder,CO,80303
998,Church Of The New World Christ,Boulder,CO,80303
999,City On The Hill Ministries Inc,Boulder,CO,80303
1000,Ciyota Inc,Boulder,CO,80303
1001,Community Eco Living,Boulder,CO,80303
1002,Compassionrocks Inc,Boulder,CO,80303
1003,Congregation Bonai Shalom,Boulder,CO,80303
1004,Corporate Running Association,Boulder,CO,80303
1005,Countryside Montessori School Inc,Boulder,CO,80303
1006,Credit Unions Chartered In The State Of Colorado,Boulder,CO,80303
1007,Crestview Church,Boulder,CO,80303
1008,Dahlia & Rosa Marcia Foundation,Boulder,CO,80303
1009,Day Foundation,Boulder,CO,80303
1010,Douglass Elementary Pto-sit Inc,Boulder,CO,80303
1011,Dream Worthy,Boulder,CO,80303
1012,East Side Art Institute Inc,Boulder,CO,80303
1013,Ecesis Foundation,Boulder,CO,80303
1014,Environmental Foundation,Boulder,CO,80303
1015,Fairview Band Boosters Organization,Boulder,CO,80303
1016,Family Quest Of Colorado,Boulder,CO,80303
1017,Flatirons Mineral Club,Boulder,CO,80303
1018,Frasier Meadows Manor Inc,Boulder,CO,80303
1019,Fraternal Order Of Police,Boulder,CO,80303
1020,Friends Interested In Dogs & Open Space Inc,Boulder,CO,80303
1021,Friends Of Boulder Community School Of Integrated Studies,Boulder,CO,80303
1022,Friends Of Tibetan Settlements In India,Boulder,CO,80303
1023,Friends School Inc,Boulder,CO,80303
1024,Globe Center Inc,Boulder,CO,80303
1025,Golden Sun Foundation For World Culture,Boulder,CO,80303
1026,Golden West Communities Inc,Boulder,CO,80303
1027,Golden West Foundation,Boulder,CO,80303
1028,Graduate School Of Banking At Colorado,Boulder,CO,80303
1029,Green Up Our Schools,Boulder,CO,80303
1030,Grillo Health Information Center,Boulder,CO,80303
1031,Groundwork,Boulder,CO,80303
1032,Gu Feng Tai Chi Club,Boulder,CO,80303
1033,Gunbarrel Commons Park Association,Boulder,CO,80303
1034,Hakubai Temple,Boulder,CO,80303
1035,Harlow Foundation Inc,Boulder,CO,80303
1036,Hart Family Foundation,Boulder,CO,80303
1037,Haver Inc,Boulder,CO,80303
1038,High Peaks Educational Group Inc,Boulder,CO,80303
1039,Hillside Learning Center,Boulder,CO,80303
1040,His Works Kazi Yake,Boulder,CO,80303
1041,Hope For Youths,Boulder,CO,80303
1042,Horizons K8,Boulder,CO,80303
1043,Hypothetical Theatre Company Inc,Boulder,CO,80303
1044,I Have A Dream Foundation Of Boulder County,Boulder,CO,80303
1045,Impermanent Sangha,Boulder,CO,80303
1046,Innovo Foundation,Boulder,CO,80303
1047,Institute For Sustainable Peace,Boulder,CO,80303
1048,International Association Of Fire Fighters,Boulder,CO,80303
1049,Islamic Center Of Boulder,Boulder,CO,80303
1050,Jubilee Farms Inc,Boulder,CO,80303
1051,Just Go Harder Foundation,Boulder,CO,80303
1052,Justin Parker Neurological Institute,Boulder,CO,80303
1053,Kehilath Aish Kodesh,Boulder,CO,80303
1054,La Leche League International Inc,Boulder,CO,80303
1055,La Montana Fund,Boulder,CO,80303
1056,Lafayette Seals Booster Club,Boulder,CO,80303
1057,Lapis Buddha Foundation,Boulder,CO,80303
1058,Legacy Of Learning,Boulder,CO,80303
1059,Living Earth Agriculture Foundation,Boulder,CO,80303
1060,Mad Ministries,Boulder,CO,80303
1061,Maker Bolder,Boulder,CO,80303
1062,Manhattan Middle School Parent Teacher Organization,Boulder,CO,80303
1063,Meadows Club,Boulder,CO,80303
1064,Medicine Horse Program,Boulder,CO,80303
1065,Menorah Arts Culture & Education At,Boulder,CO,80303
1066,Mountain View United Methodist Church,Boulder,CO,80303
1067,National Association Of Letter Carriers,Boulder,CO,80303
1068,National Society Daughters Of Colonial Wars Inc,Boulder,CO,80303
1069,National Society Daughters Of The Union 1861-1865,Boulder,CO,80303
1070,National Sojourners Inc,Boulder,CO,80303
1071,Native American Producers Alliance,Boulder,CO,80303
1072,Navajo Court Mutual Improvement Maintenance And Park Association,Boulder,CO,80303
1073,Noble Grain,Boulder,CO,80303
1074,Nyagi Project,Boulder,CO,80303
1075,O J & Mary Christine Harvey Educational Foundation,Boulder,CO,80303
1076,Oasis For Veterans,Boulder,CO,80303
1077,One More International Inc,Boulder,CO,80303
1078,Our School Preschool Inc,Boulder,CO,80303
1079,Pangaea Foundation,Boulder,CO,80303
1080,Parent Engagement Network,Boulder,CO,80303
1081,Parent Teacher Organization Of Nevin Platt Middle School,Boulder,CO,80303
1082,Partners In Parenting Haiti Inc,Boulder,CO,80303
1083,Peaks To Plains Suzuki Institute,Boulder,CO,80303
1084,Positive Coaching Inc,Boulder,CO,80303
1086,Ready To Work Aurora,Boulder,CO,80303
1087,Rhetoric Society Of America,Boulder,CO,80303
1088,Rhythm Of Kindness Foundation,Boulder,CO,80303
1089,Rock Creek Church,Boulder,CO,80303
1090,Rocky Mountain Ecodharma Retreat Center,Boulder,CO,80303
1091,Rocky Mountain Neptunes,Boulder,CO,80303
1092,Rocky Mountain Riding Therapy,Boulder,CO,80303
1093,Rocky Mountain Special Hockey,Boulder,CO,80303
1094,Romanian American Freedom Alliance,Boulder,CO,80303
1095,S G R Y Of Colorado,Boulder,CO,80303
1096,Sacred Heart Of Mary Parish,Boulder,CO,80303
1097,Saint Thomas Aquinas Housing,Boulder,CO,80303
1098,Savory Institute Org Inc,Boulder,CO,80303
1099,Sea Earth Alliance,Boulder,CO,80303
1100,Second Baptist Church,Boulder,CO,80303
1101,Senior Homeshares,Boulder,CO,80303
1102,Shaolin Hung Mei Kung Fu Association,Boulder,CO,80303
1103,Social Venture Partners Boulder County Inc,Boulder,CO,80303
1104,South Boulder Bible Church,Boulder,CO,80303
1105,South Boulder Canon Ditch Company,Boulder,CO,80303
1106,South Central Unity Churches Association Inc,Boulder,CO,80303
1107,Springs Life Sdb Church,Boulder,CO,80303
1108,Suitts Family Foundation,Boulder,CO,80303
1109,Test Every Child For Dyslexia Inc,Boulder,CO,80303
1110,Tet Family Foundation A Non-profit Corporation,Boulder,CO,80303
1111,The Boedecker Foundation,Boulder,CO,80303
1112,The Caritas Center,Boulder,CO,80303
1113,The Neuman Family Foundation,Boulder,CO,80303
1114,The@mark G And Bernee D L Strom Foundation,Boulder,CO,80303
1115,Thorne Ecological Institute,Boulder,CO,80303
1116,Two Hearts Fne,Boulder,CO,80303
1117,Unity Columbine Spiritual Center,Boulder,CO,80303
1118,Urban Wildlife Photo Club Inc,Boulder,CO,80303
1119,Vajra Amrita Mandala,Boulder,CO,80303
1120,Valley Bible Chapel,Boulder,CO,80303
1121,Vertile Foundation Inc,Boulder,CO,80303
1122,Veterans With Dignity,Boulder,CO,80303
1123,Watson Caring Science Institute,Boulder,CO,80303
1124,Yeong Sang Presbyterian Church,Boulder,CO,80303
1125,4222-humanity Through Baseball Foundation Inc,Boulder,CO,80305
1126,A Buck A Month Club,Boulder,CO,80305
1127,Adventure Rabbi Trips,Boulder,CO,80305
1128,African Conservation Centre Us,Boulder,CO,80305
1129,Alt-x Digital Arts Foundation,Boulder,CO,80305
1130,American Federation Of Government Employees,Boulder,CO,80305
1131,Asset Education,Boulder,CO,80305
1132,Bear Creek Home & School Association Inc,Boulder,CO,80305
1133,Berean Fundamental Church Of Boulder Colorado,Boulder,CO,80305
1134,Bixby & Associates,Boulder,CO,80305
1135,Books For Humanity Inc,Boulder,CO,80305
1136,Boulder Building Block Fund,Boulder,CO,80305
1137,Boulder County Safe Schools Coalition Inc,Boulder,CO,80305
1138,Boulder Food Rescue,Boulder,CO,80305
1139,Boulder Montessori School,Boulder,CO,80305
1140,Boulder Nobel Circle,Boulder,CO,80305
1141,Boulder Postoley Dance Ensemble,Boulder,CO,80305
1142,Boulder School For German Language And Culture,Boulder,CO,80305
1143,Boulder Suzuki Strings,Boulder,CO,80305
1144,Boulder Water Polo Club,Boulder,CO,80305
1145,Boulder-cuba Sister City Organization,Boulder,CO,80305
1146,Brent Family Foundation,Boulder,CO,80305
1147,Brighter Days Dog Rescue,Boulder,CO,80305
1148,Bvkid,Boulder,CO,80305
1149,C L I M B For Kids Foundation,Boulder,CO,80305
1150,Center For High Impact Weather Studies,Boulder,CO,80305
1151,Center For Severe Weather Research Inc,Boulder,CO,80305
1152,Coal Creek Canyon Watershed Partnership,Boulder,CO,80305
1153,Coalition For Colorado Universal Health Care,Boulder,CO,80305
1154,Colorado 4-h Foundation Inc,Boulder,CO,80305
1155,Colorado Abc,Boulder,CO,80305
1156,Colorado High School Boys Volleybal Association Inc,Boulder,CO,80305
1157,Colorado Russia Agricultural Group,Boulder,CO,80305
1158,Commerce Childrens Center Assoc,Boulder,CO,80305
1159,Community Leadership Academy Inc,Boulder,CO,80305
1160,Communityler,Boulder,CO,80305
1161,Conservation Ink,Boulder,CO,80305
1162,Creekside Parent Organization,Boulder,CO,80305
1163,Davis Phinney Foundation,Boulder,CO,80305
1164,Day Care Center,Boulder,CO,80305
1165,Dental Axs Inc,Boulder,CO,80305
1166,Earths Table Ltd,Boulder,CO,80305
1167,Enrich Life Over 50,Boulder,CO,80305
1168,Environment For The Americas Inc,Boulder,CO,80305
1169,Fairview High School Parents Organization Inc,Boulder,CO,80305
1170,Fairview Knights All Sports Booster Club Inc,Boulder,CO,80305
1171,Front Range Nesting Bald Eagle Studies,Boulder,CO,80305
1172,Gasp Of Colorado,Boulder,CO,80305
1173,Golden Eagle Wrestling Inc,Boulder,CO,80305
1174,Hadassah The Womens Zionist Organization Of America,Boulder,CO,80305
1175,Hearts Of Peace Foundation,Boulder,CO,80305
1176,Helpatschool,Boulder,CO,80305
1177,Helping Hands Health Education Inc,Boulder,CO,80305
1178,Highland Baptist Church Of Boulder Colo Inc,Boulder,CO,80305
1179,Hill Of Hope The Mark James Hill Foundation,Boulder,CO,80305
1180,Historical Cemetery No 18 Perpetual Care Fund,Boulder,CO,80305
1181,Hope For Madagascar,Boulder,CO,80305
1182,Hora Romaneasca Dance Ensemble,Boulder,CO,80305
1183,Indian Peaks Traverse Coalition,Boulder,CO,80305
1184,International Cryocooler Conference Inc,Boulder,CO,80305
1185,International Dyslexia Association- Rocky Mountian Branch,Boulder,CO,80305
1186,Jews Of The Earth,Boulder,CO,80305
1187,Jumping Mouse Foundation,Boulder,CO,80305
1188,Kimochi Incorporated,Boulder,CO,80305
1189,Knight Time Baseball Inc,Boulder,CO,80305
1190,Lilavati Institute,Boulder,CO,80305
1191,Lotus Light Foundation,Boulder,CO,80305
1192,Mary Sandoe House Inc,Boulder,CO,80305
1193,Mesa Elementary School Parent Teacher Organization,Boulder,CO,80305
1194,Mother House Inc,Boulder,CO,80305
1195,Mother Meera Home Colorado,Boulder,CO,80305
1196,Mount Calvary Lutheran Church,Boulder,CO,80305
1197,Mount Hope Lutheran Church,Boulder,CO,80305
1198,Munger Family Foundation,Boulder,CO,80305
1199,Mysalus Pbc,Boulder,CO,80305
1200,National Federation Of Music Clubs,Boulder,CO,80305
1201,New Subasio Institute,Boulder,CO,80305
1202,Old School Sports Inc,Boulder,CO,80305
1203,Optimist International,Boulder,CO,80305
1204,Padmasambhava Meditation Center,Boulder,CO,80305
1205,Patient Advocacy Coalition,Boulder,CO,80305
1206,Peak Research Inc,Boulder,CO,80305
1207,Perfecting Horizons Inc,Boulder,CO,80305
1208,Professional Trailbuilders Association,Boulder,CO,80305
1209,Pta Colorado Congress,Boulder,CO,80305
1210,Rejoice Children Center Incorporation,Boulder,CO,80305
1211,Road Runners Club Of America,Boulder,CO,80305
1212,Rocky Mountain Catalysis Society,Boulder,CO,80305
1213,Rocky Mountain Healing Hands Non Profit,Boulder,CO,80305
1214,Rocky Mountain Synchronized Swimming,Boulder,CO,80305
1215,Roots Running Project,Boulder,CO,80305
1216,Safe Haven Rescue,Boulder,CO,80305
1217,Samantha Remington Angel Heart Foundation,Boulder,CO,80305
1218,Scientific Foundation For Prehistoric Rock Art,Boulder,CO,80305
1219,Sean M Higgins Memorial Scholarship Fund,Boulder,CO,80305
1220,Second Wind Fund Of Boulder County,Boulder,CO,80305
1221,Shanao Cacao Collective,Boulder,CO,80305
1222,Southern Hills Parent And Teacher Organization Inc,Boulder,CO,80305
1223,Summit Middle Charter School Inc,Boulder,CO,80305
1224,Sunshine Canyon Dog Rescue,Boulder,CO,80305
1225,Supporters Of Fairview Ib Inc,Boulder,CO,80305
1226,Supporters Of Summit Inc,Boulder,CO,80305
1227,Tau Beta Pi Association Inc,Boulder,CO,80305
1228,The Catamounts Nfp,Boulder,CO,80305
1231,Toastmasters International,Boulder,CO,80305
1232,Underdogs Animal Rescue,Boulder,CO,80305
1233,Veterans Of Foreign Wars Of The United States Dept Of Colorado,Boulder,CO,80305
1234,Vintage Panthers Inc,Boulder,CO,80305
1235,Watson,Boulder,CO,80305
1236,Wild At Heart,Boulder,CO,80305
